NORAD_CAT_ID,OBJECT_NAME,OBJECT_TYPE,EPOCH,MEAN_MOTION,ECCENTRICITY,INCLINATION,RA_OF_ASC_NODE,ARG_OF_PERICENTER,MEAN_ANOMALY,BSTAR,MEAN_MOTION_DOT,MEAN_MOTION_DDOT,TLE_LINE0,TLE_LINE1,TLE_LINE2,SEMIMAJOR_AXIS,PERIOD,APOGEE,PERIGEE,DECAYED
50157.0,STARLINK-3313,PAYLOAD,2022-07-10 20:36:08,15.08833883,0.0003264,53.2142,144.8833,53.9622,306.1672,-1.5884000000000002e-05,-5.42e-06,0.0,0 STARLINK-3313,1 50157U 21125B   22191.85843237 -.00000542  00000-0 -15884-4 0  9997,2 50157  53.2142 144.8833 0003264  53.9622 306.1672 15.08833883 34537,6917.899,95.438,542.0219999999998,537.506,0.0
50157.0,STARLINK-3313,PAYLOAD,2022-07-11 02:57:41,15.08836562,0.0003242,53.2142,143.6947,53.942,306.1872,4.7288e-05,4.64e-06,0.0,0 STARLINK-3313,1 50157U 21125B   22192.12339263  .00000464  00000-0  47288-4 0  9991,2 50157  53.2142 143.6947 0003242  53.9420 306.1872 15.08836562 31448,6917.891,95.438,541.999,537.513,0.0
50157.0,STARLINK-3313,PAYLOAD,2022-07-11 04:33:04,15.08837638,0.000322,53.2139,143.3966,53.0087,307.12,4.5238e-05,4.31e-06,0.0,0 STARLINK-3313,1 50157U 21125B   22192.18963233  .00000431  00000-0  45238-4 0  9994,2 50157  53.2139 143.3966 0003220  53.0087 307.1200 15.08837638 34587,6917.888000000001,95.438,541.98,537.525,0.0
50157.0,STARLINK-3313,PAYLOAD,2022-07-11 20:26:55,15.08843198,0.0003231,53.2143,140.4236,54.2372,305.8921,0.00035952,5.439e-05,0.0,0 STARLINK-3313,1 50157U 21125B   22192.85203424  .00005439  00000-0  35952-3 0  9991,2 50157  53.2143 140.4236 0003231  54.2372 305.8921 15.08843198 34686,6917.871,95.437,541.971,537.5,0.0
50157.0,STARLINK-3313,PAYLOAD,2022-07-12 02:48:28,15.08855518,0.0003222,53.2138,139.2334,55.4788,304.6508,0.0006854,0.00010642,0.0,0 STARLINK-3313,1 50157U 21125B   22193.11699259  .00010642  00000-0  68540-3 0  9997,2 50157  53.2138 139.2334 0003222  55.4788 304.6508 15.08855518 31593,6917.833000000001,95.437,541.927,537.469,0.0
50157.0,STARLINK-3313,PAYLOAD,2022-07-12 04:23:51,15.08858829,0.0003221,53.2137,138.9359,55.7429,304.3868,0.00078913,0.000123,0.0,0 STARLINK-3313,1 50157U 21125B   22193.18323186  .00012300  00000-0  78913-3 0  9995,2 50157  53.2137 138.9359 0003221  55.7429 304.3868 15.08858829 34732,6917.823,95.436,541.9159999999998,537.46,0.0
50157.0,STARLINK-3313,PAYLOAD,2022-07-12 18:42:19,15.08854462,0.0003278,53.2139,136.2595,56.8544,303.2762,0.00037677,5.715e-05,0.0,0 STARLINK-3313,1 50157U 21125B   22193.77938926  .00005715  00000-0  37677-3 0  9998,2 50157  53.2139 136.2595 0003278  56.8544 303.2762 15.08854462 31691,6917.8359999999975,95.437,541.969,537.434,0.0
50157.0,STARLINK-3313,PAYLOAD,2022-07-12 20:17:42,15.08853889,0.0003282,53.214,135.9622,57.0681,303.0627,0.00036021,5.451e-05,0.0,0 STARLINK-3313,1 50157U 21125B   22193.84562915  .00005451  00000-0  36021-3 0  9996,2 50157  53.2140 135.9622 0003282  57.0681 303.0627 15.08853889 34839,6917.8380000000025,95.437,541.9730000000002,537.433,0.0
50157.0,STARLINK-3313,PAYLOAD,2022-07-13 02:39:14,15.08860444,0.0003278,53.2142,134.7728,57.4033,302.7275,0.00041992,6.405e-05,0.0,0 STARLINK-3313,1 50157U 21125B   22194.11058449  .00006405  00000-0  41992-3 0  9992,2 50157  53.2142 134.7728 0003278  57.4033 302.7275 15.08860444 34879,6917.818,95.436,541.951,537.415,0.0
50157.0,STARLINK-3313,PAYLOAD,2022-07-14 02:30:01,15.08843142,0.0003103,53.2149,130.3122,59.1586,300.9711,-5.0918e-05,-1.099e-05,0.0,0 STARLINK-3313,1 50157U 21125B   22195.10418425 -.00001099  00000-0 -50918-4 0  9991,2 50157  53.2149 130.3122 0003103  59.1586 300.9711 15.08843142 31895,6917.871,95.437,541.882,537.589,0.0
50157.0,STARLINK-3313,PAYLOAD,2022-07-14 04:05:25,15.08832138,0.0003081,53.2147,130.0149,59.2903,300.8393,-0.00021355,-3.685e-05,0.0,0 STARLINK-3313,1 50157U 21125B   22195.17043020 -.00003685  00000-0 -21355-3 0  9998,2 50157  53.2147 130.0149 0003081  59.2903 300.8393 15.08832138 31908,6917.904,95.438,541.901,537.638,0.0
50157.0,STARLINK-3313,PAYLOAD,2022-07-14 19:59:16,15.08831878,0.0002991,53.2148,127.0417,56.5643,303.5634,-0.00015809,-2.803e-05,0.0,0 STARLINK-3313,1 50157U 21125B   22195.83283325 -.00002803  00000-0 -15809-3 0  9993,2 50157  53.2148 127.0417 0002991  56.5643 303.5634 15.08831878 35130,6917.905,95.438,541.839,537.701,0.0
50157.0,STARLINK-3313,PAYLOAD,2022-07-15 03:56:12,15.08840377,0.0003054,53.2152,125.5547,59.3758,300.7535,-3.0569e-05,-7.75e-06,0.0,0 STARLINK-3313,1 50157U 21125B   22196.16403248 -.00000775  00000-0 -30569-4 0  9995,2 50157  53.2152 125.5547 0003054  59.3758 300.7535 15.08840377 32052,6917.879,95.438,541.857,537.632,0.0
50157.0,STARLINK-3313,PAYLOAD,2022-07-15 11:53:07,15.08841271,0.0002967,53.2152,124.0676,58.5337,301.5945,7.7938e-05,9.52e-06,0.0,0 STARLINK-3313,1 50157U 21125B   22196.49523030  .00000952  00000-0  77938-4 0  9999,2 50157  53.2152 124.0676 0002967  58.5337 301.5945 15.08841271 35236,6917.877,95.437,541.794,537.689,0.0
50157.0,STARLINK-3313,PAYLOAD,2022-07-15 19:50:03,15.08845541,0.0002971,53.2153,122.581,58.2692,301.8589,0.0002078,3.021e-05,0.0,0 STARLINK-3313,1 50157U 21125B   22196.82642558  .00003021  00000-0  20780-3 0  9995,2 50157  53.2153 122.5810 0002971  58.2692 301.8589 15.08845541 32155,6917.863,95.437,541.784,537.673,0.0
50157.0,STARLINK-3313,PAYLOAD,2022-07-16 11:43:54,15.08845977,0.0002991,53.2151,119.6077,59.2861,300.8425,0.0001925,2.777e-05,0.0,0 STARLINK-3313,1 50157U 21125B   22197.48882919  .00002777  00000-0  19250-3 0  9992,2 50157  53.2151 119.6077 0002991  59.2861 300.8425 15.08845977 35385,6917.861999999999,95.437,541.7959999999998,537.658,0.0
50157.0,STARLINK-3313,PAYLOAD,2022-07-16 18:05:27,15.0884535,0.0002999,53.2152,118.4182,65.1491,294.9813,0.00019055,2.746e-05,0.0,0 STARLINK-3313,1 50157U 21125B   22197.75378889  .00002746  00000-0  19055-3 0  9997,2 50157  53.2152 118.4182 0002999  65.1491 294.9813 15.08845350 32299,6917.864000000001,95.437,541.804,537.654,0.0
50157.0,STARLINK-3313,PAYLOAD,2022-07-17 11:34:41,15.08839714,0.0002969,53.215,115.1467,60.2414,299.8873,1.0209e-05,-1.26e-06,0.0,0 STARLINK-3313,1 50157U 21125B   22198.48243046 -.00000126  00000-0  10209-4 0  9998,2 50157  53.2150 115.1467 0002969  60.2414 299.8873 15.08839714 35532,6917.880999999999,95.438,541.8,537.692,0.0
50157.0,STARLINK-3313,PAYLOAD,2022-07-17 17:56:14,15.08843117,0.0003008,53.215,113.9571,62.244,297.8856,-3.5825e-05,-8.59e-06,0.0,0 STARLINK-3313,1 50157U 21125B   22198.74738843 -.00000859  00000-0 -35825-4 0  9996,2 50157  53.2150 113.9571 0003008  62.2440 297.8856 15.08843117 32448,6917.871,95.437,541.817,537.655,0.0
50157.0,STARLINK-3313,PAYLOAD,2022-07-17 19:31:37,15.08844279,0.0002967,53.215,113.6598,60.92,299.2089,2.6662e-06,-2.46e-06,0.0,0 STARLINK-3313,1 50157U 21125B   22198.81362738 -.00000246  00000-0  26662-5 0  9999,2 50157  53.2150 113.6598 0002967  60.9200 299.2089 15.08844279 35588,6917.8669999999975,95.437,541.785,537.68,0.0
50157.0,STARLINK-3313,PAYLOAD,2022-07-18 01:53:10,15.08839325,0.0002763,53.2151,112.4706,57.6793,302.4467,-6.5458e-05,-1.33e-05,0.0,0 STARLINK-3313,1 50157U 21125B   22199.07859511 -.00001330  00000-0 -65458-4 0  9999,2 50157  53.2151 112.4706 0002763  57.6793 302.4467 15.08839325 32491,6917.882,95.438,541.659,537.836,0.0
50157.0,STARLINK-3313,PAYLOAD,2022-07-18 11:25:29,15.08836882,0.0002722,53.2158,110.6859,60.7047,299.4217,1.2363e-05,-9.2e-07,0.0,0 STARLINK-3313,1 50157U 21125B   22199.47603603 -.00000092  00000-0  12363-4 0  9992,2 50157  53.2158 110.6859 0002722  60.7047 299.4217 15.08836882 35686,6917.89,95.438,541.638,537.872,0.0
50157.0,STARLINK-3313,PAYLOAD,2022-07-18 20:57:48,15.08833566,0.0002583,53.2154,108.901,60.3753,299.7496,2.9237e-05,1.77e-06,0.0,0 STARLINK-3313,1 50157U 21125B   22199.87347822  .00000177  00000-0  29237-4 0  9995,2 50157  53.2154 108.9010 0002583  60.3753 299.7496 15.08833566 35741,6917.9,95.438,541.552,537.9780000000002,0.0
50157.0,STARLINK-3313,PAYLOAD,2022-07-19 03:19:21,15.08832093,0.0002656,53.2153,107.7119,59.4213,300.7041,1.4145e-05,-6.3e-07,0.0,0 STARLINK-3313,1 50157U 21125B   22200.13844100 -.00000063  00000-0  14145-4 0  9995,2 50157  53.2153 107.7119 0002656  59.4213 300.7041 15.08832093 32658,6917.905,95.438,541.607,537.932,0.0
50157.0,STARLINK-3313,PAYLOAD,2022-07-19 11:16:16,15.08844852,0.0002718,53.2153,106.2253,57.7761,302.3494,-1.0774e-05,-4.6e-06,0.0,0 STARLINK-3313,1 50157U 21125B   22200.46963398 -.00000460  00000-0 -10774-4 0  9998,2 50157  53.2153 106.2253 0002718  57.7761 302.3494 15.08844852 32701,6917.866,95.437,541.611,537.85,0.0
50157.0,STARLINK-3313,PAYLOAD,2022-07-19 22:23:58,15.08848223,0.0002563,53.2144,104.1435,59.9108,300.2138,0.00027948,4.163e-05,0.0,0 STARLINK-3313,1 50157U 21125B   22200.93331271  .00004163  00000-0  27948-3 0  9991,2 50157  53.2144 104.1435 0002563  59.9108 300.2138 15.08848223 35900,6917.855,95.437,541.493,537.947,0.0
50157.0,STARLINK-3313,PAYLOAD,2022-07-20 03:10:07,15.0885519,0.0002703999999999,53.2146,103.2521,58.094,302.0315,0.00036277,5.492e-05,0.0,0 STARLINK-3313,1 50157U 21125B   22201.13203027  .00005492  00000-0  36277-3 0  9992,2 50157  53.2146 103.2521 0002704  58.0940 302.0315 15.08855190 32803,6917.834,95.437,541.57,537.828,0.0
50157.0,STARLINK-3313,PAYLOAD,2022-07-20 11:07:03,15.08843004,0.0003085,53.2141,101.7635,63.3802,296.7505,0.0002485999999999,3.671e-05,0.0,0 STARLINK-3313,1 50157U 21125B   22201.46323795  .00003671  00000-0  24860-3 0  9995,2 50157  53.2141 101.7635 0003085  63.3802 296.7505 15.08843004 35989,6917.871,95.437,541.87,537.602,0.0
50157.0,STARLINK-3313,PAYLOAD,2022-07-20 15:53:13,15.08844907,0.0002832,53.2132,100.8715,62.8678,297.2603,0.00021452,3.128e-05,0.0,0 STARLINK-3313,1 50157U 21125B   22201.66195603  .00003128  00000-0  21452-3 0  9993,2 50157  53.2132 100.8715 0002832  62.8678 297.2603 15.08844907 32886,6917.865,95.437,541.69,537.771,0.0
